[{"COMMENT":"GENERATED VIA SPACETRACK.ORG API","ORIGINATOR":"18 SPCS","NORAD_CAT_ID":"43476","OBJECT_NAME":"GRACE-FO 1","OBJECT_TYPE":"PAYLOAD","CLASSIFICATION_TYPE":"U","INTLDES":"18047A","EPOCH":"2023-12-31 22:39:41","EPOCH_MICROSECONDS":"878944","MEAN_MOTION":"15.27735487","ECCENTRICITY":"0.0013775","INCLINATION":"88.9838","RA_OF_ASC_NODE":"322.2257","ARG_OF_PERICENTER":"10.3652","MEAN_ANOMALY":"349.7878","EPHEMERIS_TYPE":"0","ELEMENT_SET_NO":"999","REV_AT_EPOCH":"31217","BSTAR":"0.0001336","MEAN_MOTION_DOT":"0.00003656","MEAN_MOTION_DDOT":"0","FILE":"4150400","TLE_LINE0":"0 GRACE-FO 1","TLE_LINE1":"1 43476U 18047A   23365.94423471  .00003656  00000-0  13360-3 0  9993","TLE_LINE2":"2 43476  88.9838 322.2257 0013775  10.3652 349.7878 15.27735487312172","OBJECT_ID":"2018-047A","OBJECT_NUMBER":"43476","SEMIMAJOR_AXIS":"6860.721","PERIOD":"94.257","APOGEE":"492.036","PERIGEE":"473.135","DECAYED":"0"},{"COMMENT":"GENERATED VIA SPACETRACK.ORG API","ORIGINATOR":"18 SPCS","NORAD_CAT_ID":"43476","OBJECT_NAME":"GRACE-FO 1","OBJECT_TYPE":"PAYLOAD","CLASSIFICATION_TYPE":"U","INTLDES":"18047A","EPOCH":"2024-01-01 03:22:40","EPOCH_MICROSECONDS":"10304","MEAN_MOTION":"15.27736769","ECCENTRICITY":"0.0013724","INCLINATION":"88.9838","RA_OF_ASC_NODE":"322.1988","ARG_OF_PERICENTER":"9.6394","MEAN_ANOMALY":"350.5116","EPHEMERIS_TYPE":"0","ELEMENT_SET_NO":"999","REV_AT_EPOCH":"31220","BSTAR":"0.00013022","MEAN_MOTION_DOT":"0.00003565","MEAN_MOTION_DDOT":"0","FILE":"4150430","TLE_LINE0":"0 GRACE-FO 1","TLE_LINE1":"1 43476U 18047A   24001.14074086  .00003565  00000-0  13022-3 0  9991","TLE_LINE2":"2 43476  88.9838 322.1988 0013724   9.6394 350.5116 15.27736769312203","OBJECT_ID":"2018-047A","OBJECT_NUMBER":"43476","SEMIMAJOR_AXIS":"6860.717","PERIOD":"94.257","APOGEE":"491.997","PERIGEE":"473.166","DECAYED":"0"},{"COMMENT":"GENERATED VIA SPACETRACK.ORG API","ORIGINATOR":"18 SPCS","NORAD_CAT_ID":"43476","OBJECT_NAME":"GRACE-FO 1","OBJECT_TYPE":"PAYLOAD","CLASSIFICATION_TYPE":"U","INTLDES":"18047A","EPOCH":"2024-01-01 14:22:55","EPOCH_MICROSECONDS":"581888","MEAN_MOTION":"15.27740785","ECCENTRICITY":"0.0013628","INCLINATION":"88.9838","RA_OF_ASC_NODE":"322.1361","ARG_OF_PERICENTER":"7.9506","MEAN_ANOMALY":"352.1956","EPHEMERIS_TYPE":"0","ELEMENT_SET_NO":"999","REV_AT_EPOCH":"31227","BSTAR":"0.00013576","MEAN_MOTION_DOT":"0.00003715","MEAN_MOTION_DDOT":"0","FILE":"4150923","TLE_LINE0":"0 GRACE-FO 1","TLE_LINE1":"1 43476U 18047A   24001.59925442  .00003715  00000-0  13576-3 0  9992","TLE_LINE2":"2 43476  88.9838 322.1361 0013628   7.9506 352.1956 15.27740785312277","OBJECT_ID":"2018-047A","OBJECT_NUMBER":"43476","SEMIMAJOR_AXIS":"6860.705","PERIOD":"94.257","APOGEE":"491.919","PERIGEE":"473.220","DECAYED":"0"},{"COMMENT":"GENERATED VIA SPACETRACK.ORG API","ORIGINATOR":"18 SPCS","NORAD_CAT_ID":"43476","OBJECT_NAME":"GRACE-FO 1","OBJECT_TYPE":"PAYLOAD","CLASSIFICATION_TYPE":"U","INTLDES":"18047A","EPOCH":"2024-01-01 22:14:32","EPOCH_MICROSECONDS":"361216","MEAN_MOTION":"15.27743614","ECCENTRICITY":"0.0013556","INCLINATION":"88.9838","RA_OF_ASC_NODE":"322.0914","ARG_OF_PERICENTER":"6.7313","MEAN_ANOMALY":"353.4116","EPHEMERIS_TYPE":"0","ELEMENT_SET_NO":"999","REV_AT_EPOCH":"31232","BSTAR":"0.00013934","MEAN_MOTION_DOT":"0.00003812","MEAN_MOTION_DDOT":"0","FILE":"4151465","TLE_LINE0":"0 GRACE-FO 1","TLE_LINE1":"1 43476U 18047A   24001.92676344  .00003812  00000-0  13934-3 0  9999","TLE_LINE2":"2 43476  88.9838 322.0914 0013556   6.7313 353.4116 15.27743614312325","OBJECT_ID":"2018-047A","OBJECT_NUMBER":"43476","SEMIMAJOR_AXIS":"6860.696","PERIOD":"94.257","APOGEE":"491.862","PERIGEE":"473.261","DECAYED":"0"},{"COMMENT":"GENERATED VIA SPACETRACK.ORG API","ORIGINATOR":"18 SPCS","NORAD_CAT_ID":"43476","OBJECT_NAME":"GRACE-FO 1","OBJECT_TYPE":"PAYLOAD","CLASSIFICATION_TYPE":"U","INTLDES":"18047A","EPOCH":"2024-01-02 10:49:07","EPOCH_MICROSECONDS":"108608","MEAN_MOTION":"15.277484","ECCENTRICITY":"0.0013446","INCLINATION":"88.9838","RA_OF_ASC_NODE":"322.0197","ARG_OF_PERICENTER":"4.7985","MEAN_ANOMALY":"355.339","EPHEMERIS_TYPE":"0","ELEMENT_SET_NO":"999","REV_AT_EPOCH":"31240","BSTAR":"0.00015251","MEAN_MOTION_DOT":"0.0000417","MEAN_MOTION_DDOT":"0","FILE":"4151498","TLE_LINE0":"0 GRACE-FO 1","TLE_LINE1":"1 43476U 18047A   24002.45077672  .00004170  00000-0  15251-3 0  9999","TLE_LINE2":"2 43476  88.9838 322.0197 0013446   4.7985 355.3390 15.27748400312401","OBJECT_ID":"2018-047A","OBJECT_NUMBER":"43476","SEMIMAJOR_AXIS":"6860.682","PERIOD":"94.256","APOGEE":"491.772","PERIGEE":"473.322","DECAYED":"0"},{"COMMENT":"GENERATED VIA SPACETRACK.ORG API","ORIGINATOR":"18 SPCS","NORAD_CAT_ID":"43476","OBJECT_NAME":"GRACE-FO 1","OBJECT_TYPE":"PAYLOAD","CLASSIFICATION_TYPE":"U","INTLDES":"18047A","EPOCH":"2024-01-02 13:57:45","EPOCH_MICROSECONDS":"793728","MEAN_MOTION":"15.27748738","ECCENTRICITY":"0.0013416","INCLINATION":"88.9838","RA_OF_ASC_NODE":"322.0018","ARG_OF_PERICENTER":"4.3189","MEAN_ANOMALY":"355.8174","EPHEMERIS_TYPE":"0","ELEMENT_SET_NO":"999","REV_AT_EPOCH":"31242","BSTAR":"0.00014438","MEAN_MOTION_DOT":"0.0000395","MEAN_MOTION_DDOT":"0","FILE":"4151729","TLE_LINE0":"0 GRACE-FO 1","TLE_LINE1":"1 43476U 18047A   24002.58178002  .00003950  00000-0  14438-3 0  9993","TLE_LINE2":"2 43476  88.9838 322.0018 0013416   4.3189 355.8174 15.27748738312423","OBJECT_ID":"2018-047A","OBJECT_NUMBER":"43476","SEMIMAJOR_AXIS":"6860.681","PERIOD":"94.256","APOGEE":"491.750","PERIGEE":"473.342","DECAYED":"0"},{"COMMENT":"GENERATED VIA SPACETRACK.ORG API","ORIGINATOR":"18 SPCS","NORAD_CAT_ID":"43476","OBJECT_NAME":"GRACE-FO 1","OBJECT_TYPE":"PAYLOAD","CLASSIFICATION_TYPE":"U","INTLDES":"18047A","EPOCH":"2024-01-02 21:49:22","EPOCH_MICROSECONDS":"444320","MEAN_MOTION":"15.2775088","ECCENTRICITY":"0.0013357","INCLINATION":"88.9838","RA_OF_ASC_NODE":"321.9571","ARG_OF_PERICENTER":"3.0798","MEAN_ANOMALY":"357.0532","EPHEMERIS_TYPE":"0","ELEMENT_SET_NO":"999","REV_AT_EPOCH":"31247","BSTAR":"0.00013851","MEAN_MOTION_DOT":"0.0000379","MEAN_MOTION_DDOT":"0","FILE":"4151993","TLE_LINE0":"0 GRACE-FO 1","TLE_LINE1":"1 43476U 18047A   24002.90928755  .00003790  00000-0  13851-3 0  9997","TLE_LINE2":"2 43476  88.9838 321.9571 0013357   3.0798 357.0532 15.27750880312479","OBJECT_ID":"2018-047A","OBJECT_NUMBER":"43476","SEMIMAJOR_AXIS":"6860.674","PERIOD":"94.256","APOGEE":"491.703","PERIGEE":"473.376","DECAYED":"0"},{"COMMENT":"GENERATED VIA SPACETRACK.ORG API","ORIGINATOR":"18 SPCS","NORAD_CAT_ID":"43476","OBJECT_NAME":"GRACE-FO 1","OBJECT_TYPE":"PAYLOAD","CLASSIFICATION_TYPE":"U","INTLDES":"18047A","EPOCH":"2024-01-03 13:32:35","EPOCH_MICROSECONDS":"598624","MEAN_MOTION":"15.2775588","ECCENTRICITY":"0.0013214","INCLINATION":"88.9837","RA_OF_ASC_NODE":"321.8675","ARG_OF_PERICENTER":"0.6212","MEAN_ANOMALY":"359.5052","EPHEMERIS_TYPE":"0","ELEMENT_SET_NO":"999","REV_AT_EPOCH":"31257","BSTAR":"0.0001425","MEAN_MOTION_DOT":"0.00003899","MEAN_MOTION_DDOT":"0","FILE":"4152560","TLE_LINE0":"0 GRACE-FO 1","TLE_LINE1":"1 43476U 18047A   24003.56430091  .00003899  00000-0  14250-3 0  9995","TLE_LINE2":"2 43476  88.9837 321.8675 0013214   0.6212 359.5052 15.27755880312578","OBJECT_ID":"2018-047A","OBJECT_NUMBER":"43476","SEMIMAJOR_AXIS":"6860.659","PERIOD":"94.256","APOGEE":"491.590","PERIGEE":"473.459","DECAYED":"0"},{"COMMENT":"GENERATED VIA SPACETRACK.ORG API","ORIGINATOR":"18 SPCS","NORAD_CAT_ID":"43476","OBJECT_NAME":"GRACE-FO 1","OBJECT_TYPE":"PAYLOAD","CLASSIFICATION_TYPE":"U","INTLDES":"18047A","EPOCH":"2024-01-03 19:49:52","EPOCH_MICROSECONDS":"808160","MEAN_MOTION":"15.27757996","ECCENTRICITY":"0.0013162","INCLINATION":"88.9837","RA_OF_ASC_NODE":"321.8317","ARG_OF_PERICENTER":"359.6159","MEAN_ANOMALY":"0.5078","EPHEMERIS_TYPE":"0","ELEMENT_SET_NO":"999","REV_AT_EPOCH":"31261","BSTAR":"0.00014328","MEAN_MOTION_DOT":"0.0000392","MEAN_MOTION_DDOT":"0","FILE":"4152601","TLE_LINE0":"0 GRACE-FO 1","TLE_LINE1":"1 43476U 18047A   24003.82630565  .00003920  00000-0  14328-3 0  9993","TLE_LINE2":"2 43476  88.9837 321.8317 0013162 359.6159   0.5078 15.27757996312616","OBJECT_ID":"2018-047A","OBJECT_NUMBER":"43476","SEMIMAJOR_AXIS":"6860.653","PERIOD":"94.256","APOGEE":"491.548","PERIGEE":"473.488","DECAYED":"0"},{"COMMENT":"GENERATED VIA SPACETRACK.ORG API","ORIGINATOR":"18 SPCS","NORAD_CAT_ID":"43476","OBJECT_NAME":"GRACE-FO 1","OBJECT_TYPE":"PAYLOAD","CLASSIFICATION_TYPE":"U","INTLDES":"18047A","EPOCH":"2024-01-03 21:24:12","EPOCH_MICROSECONDS":"112704","MEAN_MOTION":"15.27758776","ECCENTRICITY":"0.0013153","INCLINATION":"88.9837","RA_OF_ASC_NODE":"321.8227","ARG_OF_PERICENTER":"359.3596","MEAN_ANOMALY":"0.7634","EPHEMERIS_TYPE":"0","ELEMENT_SET_NO":"999","REV_AT_EPOCH":"31262","BSTAR":"0.00014897","MEAN_MOTION_DOT":"0.00004075","MEAN_MOTION_DDOT":"0","FILE":"4152812","TLE_LINE0":"0 GRACE-FO 1","TLE_LINE1":"1 43476U 18047A   24003.89180686  .00004075  00000-0  14897-3 0  9997","TLE_LINE2":"2 43476  88.9837 321.8227 0013153 359.3596   0.7634 15.27758776312626","OBJECT_ID":"2018-047A","OBJECT_NUMBER":"43476","SEMIMAJOR_AXIS":"6860.651","PERIOD":"94.256","APOGEE":"491.540","PERIGEE":"473.492","DECAYED":"0"}]